{
  "type": "FeatureCollection",
  "features": [
    {
      "type": "Feature",
      "properties": {
        "norad_id": 39160,
        "name": "VNREDSAT 1",
        "group": "resource",
        "lat": 44.526893817892685,
        "lon": 33.36194263367906,
        "alt_km": 672.7595993072237,
        "timestamp": "2025-12-11T22:43:46.928489+00:00",
        "meta_object_name": "VNREDSAT 1",
        "meta_object_id": "2013-021B",
        "meta_epoch": "2025-12-11T14:19:41.440224",
        "meta_mean_motion": 14.64920149,
        "meta_eccentricity": 0.00013337,
        "meta_inclination": 97.937,
        "meta_ra_of_asc_node": 40.9116,
        "meta_arg_of_pericenter": 79.0441,
        "meta_mean_anomaly": 281.0912,
        "meta_ephemeris_type": 0,
        "meta_classification_type": "U",
        "meta_norad_cat_id": 39160,
        "meta_element_set_no": 999,
        "meta_rev_at_epoch": 67282,
        "meta_bstar": 0.00022816671,
        "meta_mean_motion_dot": 1.175e-05,
        "meta_mean_motion_ddot": 0,
        "tle_line1": "1 39160U 13021B   25345.59700741  .00001175  00000+0  22817-3 0  9994",
        "tle_line2": "2 39160  97.9370  40.9116 0001333  79.0441 281.0912 14.64920149672820"
      },
      "geometry": {
        "type": "Point",
        "coordinates": [
          33.36194263367906,
          44.526893817892685
        ]
      }
    },
    {
      "type": "Feature",
      "properties": {
        "norad_id": 39227,
        "name": "ARIRANG-5 (KOMPSAT-5)",
        "group": "resource",
        "lat": 10.54209791968463,
        "lon": 168.83572669814322,
        "alt_km": 552.8660459969433,
        "timestamp": "2025-12-11T22:43:46.928501+00:00",
        "meta_object_name": "ARIRANG-5 (KOMPSAT-5)",
        "meta_object_id": "2013-042A",
        "meta_epoch": "2025-12-11T14:42:05.401728",
        "meta_mean_motion": 15.04497784,
        "meta_eccentricity": 0.00036872,
        "meta_inclination": 97.6143,
        "meta_ra_of_asc_node": 169.9327,
        "meta_arg_of_pericenter": 58.334,
        "meta_mean_anomaly": 301.8245,
        "meta_ephemeris_type": 0,
        "meta_classification_type": "U",
        "meta_norad_cat_id": 39227,
        "meta_element_set_no": 999,
        "meta_rev_at_epoch": 67565,
        "meta_bstar": 0.00027772268,
        "meta_mean_motion_dot": 3.828e-05,
        "meta_mean_motion_ddot": 0,
        "tle_line1": "1 39227U 13042A   25345.61256252  .00003828  00000+0  27772-3 0  9999",
        "tle_line2": "2 39227  97.6143 169.9327 0003687  58.3340 301.8245 15.04497784675650"
      },
      "geometry": {
        "type": "Point",
        "coordinates": [
          168.83572669814322,
          10.54209791968463
        ]
      }
    },
    {
      "type": "Feature",
      "properties": {
        "norad_id": 39418,
        "name": "SKYSAT-A",
        "group": "resource",
        "lat": 3.686272930333219,
        "lon": 35.69902551725386,
        "alt_km": 541.9526327996045,
        "timestamp": "2025-12-11T22:43:46.928512+00:00",
        "meta_object_name": "SKYSAT-A",
        "meta_object_id": "2013-066C",
        "meta_epoch": "2025-12-11T14:46:10.466688",
        "meta_mean_motion": 15.11591227,
        "meta_eccentricity": 0.0020651,
        "meta_inclination": 97.411,
        "meta_ra_of_asc_node": 35.8579,
        "meta_arg_of_pericenter": 240.6292,
        "meta_mean_anomaly": 119.2877,
        "meta_ephemeris_type": 0,
        "meta_classification_type": "U",
        "meta_norad_cat_id": 39418,
        "meta_element_set_no": 999,
        "meta_rev_at_epoch": 66013,
        "meta_bstar": 0.00034734449,
        "meta_mean_motion_dot": 5.863e-05,
        "meta_mean_motion_ddot": 0,
        "tle_line1": "1 39418U 13066C   25345.61539892  .00005863  00000+0  34734-3 0  9998",
        "tle_line2": "2 39418  97.4110  35.8579 0020651 240.6292 119.2877 15.11591227660130"
      },
      "geometry": {
        "type": "Point",
        "coordinates": [
          35.69902551725386,
          3.686272930333219
        ]
      }
    },
    {
      "type": "Feature",
      "properties": {
        "norad_id": 39419,
        "name": "DUBAISAT-2",
        "group": "resource",
        "lat": 24.740576961418004,
        "lon": 159.83369088436908,
        "alt_km": 547.9586530521537,
        "timestamp": "2025-12-11T22:43:46.928523+00:00",
        "meta_object_name": "DUBAISAT-2",
        "meta_object_id": "2013-066D",
        "meta_epoch": "2025-12-11T10:53:58.335360",
        "meta_mean_motion": 15.08338462,
        "meta_eccentricity": 0.00107826,
        "meta_inclination": 97.4458,
        "meta_ra_of_asc_node": 335.9009,
        "meta_arg_of_pericenter": 325.3786,
        "meta_mean_anomaly": 34.674,
        "meta_ephemeris_type": 0,
        "meta_classification_type": "U",
        "meta_norad_cat_id": 39419,
        "meta_element_set_no": 999,
        "meta_rev_at_epoch": 65807,
        "meta_bstar": 0.00049321564,
        "meta_mean_motion_dot": 7.609e-05,
        "meta_mean_motion_ddot": 0,
        "tle_line1": "1 39419U 13066D   25345.45414740  .00007609  00000+0  49322-3 0  9994",
        "tle_line2": "2 39419  97.4458 335.9009 0010782 325.3786  34.6740 15.08338462658076"
      },
      "geometry": {
        "type": "Point",
        "coordinates": [
          159.83369088436908,
          24.740576961418004
        ]
      }
    },
    {
      "type": "Feature",
      "properties": {
        "norad_id": 39574,
        "name": "GPM-CORE",
        "group": "resource",
        "lat": -4.842683769475969,
        "lon": 37.603152045741616,
        "alt_km": 432.28463197610927,
        "timestamp": "2025-12-11T22:43:46.928534+00:00",
        "meta_object_name": "GPM-CORE",
        "meta_object_id": "2014-009C",
        "meta_epoch": "2025-12-11T15:42:48.182976",
        "meta_mean_motion": 15.44436109,
        "meta_eccentricity": 0.00098764,
        "meta_inclination": 64.9736,
        "meta_ra_of_asc_node": 216.313,
        "meta_arg_of_pericenter": 244.9229,
        "meta_mean_anomaly": 115.0887,
        "meta_ephemeris_type": 0,
        "meta_classification_type": "U",
        "meta_norad_cat_id": 39574,
        "meta_element_set_no": 999,
        "meta_rev_at_epoch": 66884,
        "meta_bstar": 0.00024024795,
        "meta_mean_motion_dot": 0.00010956,
        "meta_mean_motion_ddot": 0,
        "tle_line1": "1 39574U 14009C   25345.65472434  .00010956  00000+0  24025-3 0  9992",
        "tle_line2": "2 39574  64.9736 216.3130 0009876 244.9229 115.0887 15.44436109668842"
      },
      "geometry": {
        "type": "Point",
        "coordinates": [
          37.603152045741616,
          -4.842683769475969
        ]
      }
    },
    {
      "type": "Feature",
      "properties": {
        "norad_id": 39634,
        "name": "SENTINEL-1A",
        "group": "resource",
        "lat": -75.17038408293743,
        "lon": 24.108864732127994,
        "alt_km": 703.8959289279073,
        "timestamp": "2025-12-11T22:43:46.928544+00:00",
        "meta_object_name": "SENTINEL-1A",
        "meta_object_id": "2014-016A",
        "meta_epoch": "2025-12-11T14:51:22.688640",
        "meta_mean_motion": 14.59199865,
        "meta_eccentricity": 0.00012453,
        "meta_inclination": 98.1804,
        "meta_ra_of_asc_node": 350.8767,
        "meta_arg_of_pericenter": 82.4355,
        "meta_mean_anomaly": 277.6986,
        "meta_ephemeris_type": 0,
        "meta_classification_type": "U",
        "meta_norad_cat_id": 39634,
        "meta_element_set_no": 999,
        "meta_rev_at_epoch": 62266,
        "meta_bstar": 7.9117505e-05,
        "meta_mean_motion_dot": 3.27e-06,
        "meta_mean_motion_ddot": 0,
        "tle_line1": "1 39634U 14016A   25345.61901260  .00000327  00000+0  79118-4 0  9992",
        "tle_line2": "2 39634  98.1804 350.8767 0001245  82.4355 277.6986 14.59199865622666"
      },
      "geometry": {
        "type": "Point",
        "coordinates": [
          24.108864732127994,
          -75.17038408293743
        ]
      }
    },
    {
      "type": "Feature",
      "properties": {
        "norad_id": 39731,
        "name": "KAZEOSAT 1",
        "group": "resource",
        "lat": -53.459860970859694,
        "lon": 69.29328129930708,
        "alt_km": 759.3432303600584,
        "timestamp": "2025-12-11T22:43:46.928554+00:00",
        "meta_object_name": "KAZEOSAT 1",
        "meta_object_id": "2014-024A",
        "meta_epoch": "2025-12-11T14:39:17.402976",
        "meta_mean_motion": 14.42062007,
        "meta_eccentricity": 0.00011104,
        "meta_inclination": 98.343,
        "meta_ra_of_asc_node": 57.5429,
        "meta_arg_of_pericenter": 94.876,
        "meta_mean_anomaly": 265.2557,
        "meta_ephemeris_type": 0,
        "meta_classification_type": "U",
        "meta_norad_cat_id": 39731,
        "meta_element_set_no": 999,
        "meta_rev_at_epoch": 61152,
        "meta_bstar": 0.00016948396,
        "meta_mean_motion_dot": 5.14e-06,
        "meta_mean_motion_ddot": 0,
        "tle_line1": "1 39731U 14024A   25345.61061809  .00000514  00000+0  16948-3 0  9994",
        "tle_line2": "2 39731  98.3430  57.5429 0001110  94.8760 265.2557 14.42062007611524"
      },
      "geometry": {
        "type": "Point",
        "coordinates": [
          69.29328129930708,
          -53.459860970859694
        ]
      }
    }
  ]
}